<?xml version="1.0" encoding="UTF-8"?>
<kml xmlns="http://www.opengis.net/kml/2.2" xmlns:gx="http://www.google.com/kml/ext/2.2" xmlns:kml="http://www.opengis.net/kml/2.2" xmlns:atom="http://www.w3.org/2005/Atom">
<Document id="document">
	<name>FarmAI</name>
	<visibility>0</visibility>
	<gx:CascadingStyle kml:id="__managed_style_090F8C247E41AB5603BF_highlight">
		<styleUrl>https://earth.google.com/balloon_components/base/1.1.0.0/card_template.kml#main</styleUrl>
		<Style>
			<IconStyle>
				<scale>1.2</scale>
				<Icon>
					<href>https://earth.google.com/earth/document/icon?color=1976d2&amp;id=2000&amp;scale=4</href>
				</Icon>
				<hotSpot x="64" y="128" xunits="pixels" yunits="insetPixels"/>
			</IconStyle>
			<LabelStyle>
			</LabelStyle>
			<LineStyle>
				<color>ffd27619</color>
				<width>6</width>
			</LineStyle>
			<PolyStyle>
				<color>40ffffff</color>
			</PolyStyle>
			<BalloonStyle>
			</BalloonStyle>
		</Style>
	</gx:CascadingStyle>
	<gx:CascadingStyle kml:id="__managed_style_090F8C247E41AB5603BF_normal">
		<styleUrl>https://earth.google.com/balloon_components/base/1.1.0.0/card_template.kml#main</styleUrl>
		<Style>
			<IconStyle>
				<Icon>
					<href>https://earth.google.com/earth/document/icon?color=1976d2&amp;id=2000&amp;scale=4</href>
				</Icon>
				<hotSpot x="64" y="128" xunits="pixels" yunits="insetPixels"/>
			</IconStyle>
			<LabelStyle>
			</LabelStyle>
			<LineStyle>
				<color>ffd27619</color>
				<width>4</width>
			</LineStyle>
			<PolyStyle>
				<color>40ffffff</color>
			</PolyStyle>
			<BalloonStyle>
			</BalloonStyle>
		</Style>
	</gx:CascadingStyle>
	<gx:CascadingStyle kml:id="__managed_style_01CB29706941AB537304_normal">
		<styleUrl>https://earth.google.com/balloon_components/base/1.1.0.0/card_template.kml#main</styleUrl>
		<Style>
			<IconStyle>
				<Icon>
					<href>https://earth.google.com/earth/document/icon?color=1976d2&amp;id=2000&amp;scale=4</href>
				</Icon>
				<hotSpot x="64" y="128" xunits="pixels" yunits="insetPixels"/>
			</IconStyle>
			<LabelStyle>
			</LabelStyle>
			<LineStyle>
				<color>ff6abb66</color>
				<width>4</width>
			</LineStyle>
			<PolyStyle>
				<color>40ffffff</color>
			</PolyStyle>
			<BalloonStyle>
			</BalloonStyle>
		</Style>
	</gx:CascadingStyle>
	<gx:CascadingStyle kml:id="__managed_style_01CB29706941AB537304_highlight">
		<styleUrl>https://earth.google.com/balloon_components/base/1.1.0.0/card_template.kml#main</styleUrl>
		<Style>
			<IconStyle>
				<scale>1.2</scale>
				<Icon>
					<href>https://earth.google.com/earth/document/icon?color=1976d2&amp;id=2000&amp;scale=4</href>
				</Icon>
				<hotSpot x="64" y="128" xunits="pixels" yunits="insetPixels"/>
			</IconStyle>
			<LabelStyle>
			</LabelStyle>
			<LineStyle>
				<color>ff6abb66</color>
				<width>6</width>
			</LineStyle>
			<PolyStyle>
				<color>40ffffff</color>
			</PolyStyle>
			<BalloonStyle>
			</BalloonStyle>
		</Style>
	</gx:CascadingStyle>
	<StyleMap id="__managed_style_01CB29706941AB537304">
		<Pair>
			<key>normal</key>
			<styleUrl>#__managed_style_01CB29706941AB537304_normal</styleUrl>
		</Pair>
		<Pair>
			<key>highlight</key>
			<styleUrl>#__managed_style_01CB29706941AB537304_highlight</styleUrl>
		</Pair>
	</StyleMap>
	<gx:CascadingStyle kml:id="__managed_style_06556881CD41AB51B97C_normal">
		<styleUrl>https://earth.google.com/balloon_components/base/1.1.0.0/card_template.kml#main</styleUrl>
		<Style>
			<IconStyle>
				<Icon>
					<href>https://earth.google.com/earth/document/icon?color=1976d2&amp;id=2000&amp;scale=4</href>
				</Icon>
				<hotSpot x="64" y="128" xunits="pixels" yunits="insetPixels"/>
			</IconStyle>
			<LabelStyle>
			</LabelStyle>
			<LineStyle>
				<color>ff2f2fd3</color>
				<width>4</width>
			</LineStyle>
			<PolyStyle>
				<color>40ffffff</color>
			</PolyStyle>
			<BalloonStyle>
			</BalloonStyle>
		</Style>
	</gx:CascadingStyle>
	<StyleMap id="__managed_style_06556881CD41AB51B97C">
		<Pair>
			<key>normal</key>
			<styleUrl>#__managed_style_06556881CD41AB51B97C_normal</styleUrl>
		</Pair>
		<Pair>
			<key>highlight</key>
			<styleUrl>#__managed_style_06556881CD41AB51B97C_highlight</styleUrl>
		</Pair>
	</StyleMap>
	<gx:CascadingStyle kml:id="__managed_style_014253008D41AB4DABFC_normal">
		<styleUrl>https://earth.google.com/balloon_components/base/1.1.0.0/card_template.kml#main</styleUrl>
		<Style>
			<IconStyle>
				<Icon>
					<href>https://earth.google.com/earth/document/icon?color=1976d2&amp;id=2000&amp;scale=4</href>
				</Icon>
				<hotSpot x="64" y="128" xunits="pixels" yunits="insetPixels"/>
			</IconStyle>
			<LabelStyle>
			</LabelStyle>
			<LineStyle>
				<color>ff007cf5</color>
				<width>4</width>
			</LineStyle>
			<PolyStyle>
				<color>40ffffff</color>
			</PolyStyle>
			<BalloonStyle>
			</BalloonStyle>
		</Style>
	</gx:CascadingStyle>
	<gx:CascadingStyle kml:id="__managed_style_014253008D41AB4DABFC_highlight">
		<styleUrl>https://earth.google.com/balloon_components/base/1.1.0.0/card_template.kml#main</styleUrl>
		<Style>
			<IconStyle>
				<scale>1.2</scale>
				<Icon>
					<href>https://earth.google.com/earth/document/icon?color=1976d2&amp;id=2000&amp;scale=4</href>
				</Icon>
				<hotSpot x="64" y="128" xunits="pixels" yunits="insetPixels"/>
			</IconStyle>
			<LabelStyle>
			</LabelStyle>
			<LineStyle>
				<color>ff007cf5</color>
				<width>6</width>
			</LineStyle>
			<PolyStyle>
				<color>40ffffff</color>
			</PolyStyle>
			<BalloonStyle>
			</BalloonStyle>
		</Style>
	</gx:CascadingStyle>
	<gx:CascadingStyle kml:id="__managed_style_021DB099F841AB4A47EC_highlight">
		<styleUrl>https://earth.google.com/balloon_components/base/1.1.0.0/card_template.kml#main</styleUrl>
		<Style>
			<IconStyle>
				<scale>1.2</scale>
				<Icon>
					<href>https://earth.google.com/earth/document/icon?color=1976d2&amp;id=2000&amp;scale=4</href>
				</Icon>
				<hotSpot x="64" y="128" xunits="pixels" yunits="insetPixels"/>
			</IconStyle>
			<LabelStyle>
			</LabelStyle>
			<LineStyle>
				<color>ff2dc0fb</color>
				<width>6</width>
			</LineStyle>
			<PolyStyle>
				<color>40ffffff</color>
			</PolyStyle>
			<BalloonStyle>
			</BalloonStyle>
		</Style>
	</gx:CascadingStyle>
	<gx:CascadingStyle kml:id="__managed_style_021DB099F841AB4A47EC_normal">
		<styleUrl>https://earth.google.com/balloon_components/base/1.1.0.0/card_template.kml#main</styleUrl>
		<Style>
			<IconStyle>
				<Icon>
					<href>https://earth.google.com/earth/document/icon?color=1976d2&amp;id=2000&amp;scale=4</href>
				</Icon>
				<hotSpot x="64" y="128" xunits="pixels" yunits="insetPixels"/>
			</IconStyle>
			<LabelStyle>
			</LabelStyle>
			<LineStyle>
				<color>ff2dc0fb</color>
				<width>4</width>
			</LineStyle>
			<PolyStyle>
				<color>40ffffff</color>
			</PolyStyle>
			<BalloonStyle>
			</BalloonStyle>
		</Style>
	</gx:CascadingStyle>
	<StyleMap id="__managed_style_090F8C247E41AB5603BF">
		<Pair>
			<key>normal</key>
			<styleUrl>#__managed_style_090F8C247E41AB5603BF_normal</styleUrl>
		</Pair>
		<Pair>
			<key>highlight</key>
			<styleUrl>#__managed_style_090F8C247E41AB5603BF_highlight</styleUrl>
		</Pair>
	</StyleMap>
	<gx:CascadingStyle kml:id="__managed_style_06556881CD41AB51B97C_highlight">
		<styleUrl>https://earth.google.com/balloon_components/base/1.1.0.0/card_template.kml#main</styleUrl>
		<Style>
			<IconStyle>
				<scale>1.2</scale>
				<Icon>
					<href>https://earth.google.com/earth/document/icon?color=1976d2&amp;id=2000&amp;scale=4</href>
				</Icon>
				<hotSpot x="64" y="128" xunits="pixels" yunits="insetPixels"/>
			</IconStyle>
			<LabelStyle>
			</LabelStyle>
			<LineStyle>
				<color>ff2f2fd3</color>
				<width>6</width>
			</LineStyle>
			<PolyStyle>
				<color>40ffffff</color>
			</PolyStyle>
			<BalloonStyle>
			</BalloonStyle>
		</Style>
	</gx:CascadingStyle>
	<StyleMap id="__managed_style_014253008D41AB4DABFC">
		<Pair>
			<key>normal</key>
			<styleUrl>#__managed_style_014253008D41AB4DABFC_normal</styleUrl>
		</Pair>
		<Pair>
			<key>highlight</key>
			<styleUrl>#__managed_style_014253008D41AB4DABFC_highlight</styleUrl>
		</Pair>
	</StyleMap>
	<StyleMap id="__managed_style_021DB099F841AB4A47EC">
		<Pair>
			<key>normal</key>
			<styleUrl>#__managed_style_021DB099F841AB4A47EC_normal</styleUrl>
		</Pair>
		<Pair>
			<key>highlight</key>
			<styleUrl>#__managed_style_021DB099F841AB4A47EC_highlight</styleUrl>
		</Pair>
	</StyleMap>
	<Placemark id="07F1F182DB41AB4A47D0">
		<name>PLOT-001  Nana — Turmeric</name>
		<LookAt>
			<longitude>74.57775993911528</longitude>
			<latitude>17.00570204333349</latitude>
			<altitude>587.776730019805</altitude>
			<heading>0</heading>
			<tilt>0</tilt>
			<gx:fovy>30</gx:fovy>
			<range>409.9759001057101</range>
			<altitudeMode>absolute</altitudeMode>
		</LookAt>
		<styleUrl>#__managed_style_021DB099F841AB4A47EC</styleUrl>
		<Polygon>
			<outerBoundaryIs>
				<LinearRing>
					<coordinates>
						74.57754376015676,17.0059053420125,0 74.57731063937462,17.00533096618354,0 74.578131186942,17.00513008683082,0 74.578323647636,17.00576004447195,0 74.57754376015676,17.0059053420125,0 
					</coordinates>
				</LinearRing>
			</outerBoundaryIs>
		</Polygon>
	</Placemark>
	<Placemark id="048BEDA8F341AB4D8049">
		<name>PLOT-002  Teakwood</name>
		<LookAt>
			<longitude>74.57705732237079</longitude>
			<latitude>17.00581707635493</latitude>
			<altitude>588.8109538785615</altitude>
			<heading>0</heading>
			<tilt>0</tilt>
			<gx:fovy>30</gx:fovy>
			<range>155.4061745488434</range>
			<altitudeMode>absolute</altitudeMode>
		</LookAt>
		<styleUrl>#__managed_style_014253008D41AB4DABFC</styleUrl>
		<Polygon>
			<outerBoundaryIs>
				<LinearRing>
					<coordinates>
						74.57687847887577,17.0060763685268,0 74.57679786239926,17.00586344086801,0 74.5769659429516,17.00581739684967,0 74.577135550592,17.00577961842835,0 74.5774667242645,17.00570408242649,0 74.57754093682509,17.00591342059841,0 74.57720907264518,17.0059902531981,0 74.57704325249117,17.00603906105045,0 74.57687847887577,17.0060763685268,0 
					</coordinates>
				</LinearRing>
			</outerBoundaryIs>
		</Polygon>
	</Placemark>
	<Placemark id="08692C292741AB515594">
		<name>PLOT-003  Adjacent to Home</name>
		<LookAt>
			<longitude>74.57746971539751</longitude>
			<latitude>17.00572822672897</latitude>
			<altitude>588.0468103660372</altitude>
			<heading>0</heading>
			<tilt>0</tilt>
			<gx:fovy>30</gx:fovy>
			<range>243.2980881466211</range>
			<altitudeMode>absolute</altitudeMode>
		</LookAt>
		<styleUrl>#__managed_style_06556881CD41AB51B97C</styleUrl>
		<Polygon>
			<outerBoundaryIs>
				<LinearRing>
					<coordinates>
						74.57680677836987,17.00586560141048,0 74.57679558806755,17.00586737047648,0 74.57677523123353,17.00581547530523,0 74.57674895644456,17.00575076753991,0 74.57670850516078,17.00562559815571,0 74.57662369695137,17.0053783218933,0 74.57695384659708,17.00530793725292,0 74.57711955240441,17.00526586107578,0 74.57727103478338,17.00522566708874,0 74.57728964581425,17.00527753025719,0 74.57731173416056,17.00534054273119,0 74.57735407738703,17.00546598869076,0 74.57745751968105,17.00570285356545,0 74.57728666882923,17.00574448720099,0 74.57711754490809,17.00578465765902,0 74.57696018420069,17.00582476060364,0 74.57680677836987,17.00586560141048,0 
					</coordinates>
				</LinearRing>
			</outerBoundaryIs>
		</Polygon>
	</Placemark>
	<Placemark id="08CC138F1F41AB535816">
		<name>PLOT-004  2 Bighe — Sugarcane</name>
		<LookAt>
			<longitude>74.58076971856316</longitude>
			<latitude>17.00321584599255</latitude>
			<altitude>586.782386294778</altitude>
			<heading>0</heading>
			<tilt>0</tilt>
			<gx:fovy>30</gx:fovy>
			<range>316.4713685797689</range>
			<altitudeMode>absolute</altitudeMode>
		</LookAt>
		<styleUrl>#__managed_style_01CB29706941AB537304</styleUrl>
		<Polygon>
			<outerBoundaryIs>
				<LinearRing>
					<coordinates>
						74.58012719293968,17.00365183873965,0 74.57996961816983,17.0028302706419,0 74.5803821721281,17.00273118186342,0 74.58053643550666,17.00359686329142,0 74.58012719293968,17.00365183873965,0 
					</coordinates>
				</LinearRing>
			</outerBoundaryIs>
		</Polygon>
	</Placemark>
	<Placemark id="0906FE40CF41AB55B3F0">
		<name>PLOT-005  Kamble — Drumstick/Ginger</name>
		<LookAt>
			<longitude>74.57611510690469</longitude>
			<latitude>17.00705966998239</latitude>
			<altitude>581.91093160484</altitude>
			<heading>0</heading>
			<tilt>0</tilt>
			<gx:fovy>30</gx:fovy>
			<range>687.1736377863273</range>
			<altitudeMode>absolute</altitudeMode>
		</LookAt>
		<styleUrl>#__managed_style_090F8C247E41AB5603BF</styleUrl>
		<Polygon>
			<outerBoundaryIs>
				<LinearRing>
					<coordinates>
						74.57722847688925,17.00757952347458,0 74.57711977581103,17.00760721927485,0 74.57701461808421,17.00724453452078,0 74.57695996088356,17.0070560928773,0 74.57690143981894,17.00687629487716,0 74.57676942173769,17.00651708213027,0 74.57671258481074,17.00634441901021,0 74.57664261489771,17.00616742346899,0 74.57675818214565,17.00610441739918,0 74.57702601207548,17.00687691715643,0 74.57713205016462,17.00721896979013,0 74.57722847688925,17.00757952347458,0 
					</coordinates>
				</LinearRing>
			</outerBoundaryIs>
		</Polygon>
	</Placemark>
</Document>
</kml>
